{
    "links": {
        "self": "http://www.neowsapp.com/rest/v1/neo/3956450?api_key=iIulBulltgU6a56xZRHN4H3l9WmuAYTsLGpBGhQ2"
    },
    "id": "3956450",
    "neo_reference_id": "3956450",
    "name": "(2019 YR3)",
    "designation": "2019 YR3",
    "nasa_jpl_url": "http://ssd.jpl.nasa.gov/sbdb.cgi?sstr=3956450",
    "absolute_magnitude_h": 24.5,
    "estimated_diameter": {
        "kilometers": {
            "estimated_diameter_min": 0.0334622374,
            "estimated_diameter_max": 0.0748238376
        },
        "meters": {
            "estimated_diameter_min": 33.4622374455,
            "estimated_diameter_max": 74.8238376074
        },
        "miles": {
            "estimated_diameter_min": 0.0207924639,
            "estimated_diameter_max": 0.0464933628
        },
        "feet": {
            "estimated_diameter_min": 109.7842471007,
            "estimated_diameter_max": 245.4850393757
        }
    },
    "is_potentially_hazardous_asteroid": false,
    "close_approach_data": [
        {
            "close_approach_date": "1916-06-18",
            "close_approach_date_full": "1916-Jun-18 04:16",
            "epoch_date_close_approach": -1689536640000,
            "relative_velocity": {
                "kilometers_per_second": "6.7526315565",
                "kilometers_per_hour": "24309.4736035732",
                "miles_per_hour": "15104.9615288425"
            },
            "miss_distance": {
                "astronomical": "1.4996966409",
                "lunar": "583.3819933101",
                "kilometers": "224351423.124794883",
                "miles": "139405510.0103520654"
            },
            "orbiting_body": "Juptr"
        },
        {
            "close_approach_date": "2019-12-30",
            "close_approach_date_full": "2019-Dec-30 17:39",
            "epoch_date_close_approach": 1577727540000,
            "relative_velocity": {
                "kilometers_per_second": "26.1113643174",
                "kilometers_per_hour": "94000.9115427178",
                "miles_per_hour": "58408.5108416404"
            },
            "miss_distance": {
                "astronomical": "0.0100264723",
                "lunar": "3.9002977247",
                "kilometers": "1499938.899694001",
                "miles": "932018.8139831738"
            },
            "orbiting_body": "Earth"
        },
        {
            "close_approach_date": "2189-03-15",
            "close_approach_date_full": "2189-Mar-15 17:20",
            "epoch_date_close_approach": 6917419200000,
            "relative_velocity": {
                "kilometers_per_second": "21.7922506726",
                "kilometers_per_hour": "78452.1024214075",
                "miles_per_hour": "48747.0855295685"
            },
            "miss_distance": {
                "astronomical": "0.4608580012",
                "lunar": "179.2737624668",
                "kilometers": "68943375.351977444",
                "miles": "42839426.9530949672"
            },
            "orbiting_body": "Earth"
        }
    ],
    "orbital_data": {
        "orbit_id": "7",
        "orbit_determination_date": "2020-04-04 06:25:44",
        "first_observation_date": "2019-12-28",
        "last_observation_date": "2019-12-30",
        "data_arc_in_days": 2,
        "observations_used": 118,
        "orbit_uncertainty": "8",
        "minimum_orbit_intersection": ".00955795",
        "jupiter_tisserand_invariant": "3.317",
        "epoch_osculation": "2458846.5",
        "eccentricity": ".7861967958999507",
        "semi_major_axis": "2.037505241890892",
        "inclination": "9.306324175764507",
        "ascending_node_longitude": "94.96462112646481",
        "orbital_period": "1062.298403905855",
        "perihelion_distance": ".4356251490869187",
        "perihelion_argument": "108.8703604681262",
        "aphelion_distance": "3.639385334694865",
        "perihelion_time": "2458892.423558512709",
        "mean_anomaly": "344.4370649491813",
        "mean_motion": ".3388878291413724",
        "equinox": "J2000",
        "orbit_class": {
            "orbit_class_type": "APO",
            "orbit_class_description": "Near-Earth asteroid orbits which cross the Earth’s orbit similar to that of 1862 Apollo",
            "orbit_class_range": "a (semi-major axis) > 1.0 AU; q (perihelion) < 1.017 AU"
        }
    },
    "is_sentry_object": false
}